CCSDS_OMM_VERS = 2.0
CREATION_DATE  = 
ORIGINATOR     = 

OBJECT_NAME    = SILVERSAT
OBJECT_ID      = 1998-067XV
CENTER_NAME    = EARTH
REF_FRAME      = TEME
TIME_SYSTEM    = UTC
MEAN_ELEMENT_THEORY = SGP/SGP4

EPOCH          = 2026-02-12T18:52:43.535136
MEAN_MOTION    = 15.64148018
ECCENTRICITY   = .0002622
INCLINATION    = 51.6260
RA_OF_ASC_NODE = 191.6138
ARG_OF_PERICENTER = 286.8301
MEAN_ANOMALY   = 73.2406

EPHEMERIS_TYPE = 0
CLASSIFICATION_TYPE = U
NORAD_CAT_ID   = 66909
ELEMENT_SET_NO = 999
REV_AT_EPOCH   = 1128
BSTAR          = .13215E-2
MEAN_MOTION_DOT = .12951E-2
MEAN_MOTION_DDOT = 0

CCSDS_OMM_VERS = 2.0
CREATION_DATE  = 
ORIGINATOR     = 

OBJECT_NAME    = ISS OBJECT XW
OBJECT_ID      = 1998-067XW
CENTER_NAME    = EARTH
REF_FRAME      = TEME
TIME_SYSTEM    = UTC
MEAN_ELEMENT_THEORY = SGP/SGP4

EPOCH          = 2026-02-12T19:20:42.626688
MEAN_MOTION    = 15.62492126
ECCENTRICITY   = .0001815
INCLINATION    = 51.6251
RA_OF_ASC_NODE = 191.7381
ARG_OF_PERICENTER = 319.3740
MEAN_ANOMALY   = 40.7118

EPHEMERIS_TYPE = 0
CLASSIFICATION_TYPE = U
NORAD_CAT_ID   = 66910
ELEMENT_SET_NO = 999
REV_AT_EPOCH   = 1128
BSTAR          = .11176E-2
MEAN_MOTION_DOT = .102181E-2
MEAN_MOTION_DDOT = 0

CCSDS_OMM_VERS = 2.0
CREATION_DATE  = 
ORIGINATOR     = 

OBJECT_NAME    = ISS OBJECT XX
OBJECT_ID      = 1998-067XX
CENTER_NAME    = EARTH
REF_FRAME      = TEME
TIME_SYSTEM    = UTC
MEAN_ELEMENT_THEORY = SGP/SGP4

EPOCH          = 2026-02-12T15:01:00.112800
MEAN_MOTION    = 15.65511224
ECCENTRICITY   = .0003356
INCLINATION    = 51.6233
RA_OF_ASC_NODE = 192.0300
ARG_OF_PERICENTER = 305.0177
MEAN_ANOMALY   = 55.0503

EPHEMERIS_TYPE = 0
CLASSIFICATION_TYPE = U
NORAD_CAT_ID   = 66911
ELEMENT_SET_NO = 999
REV_AT_EPOCH   = 1125
BSTAR          = .14994E-2
MEAN_MOTION_DOT = .155735E-2
MEAN_MOTION_DDOT = 0

CCSDS_OMM_VERS = 2.0
CREATION_DATE  = 
ORIGINATOR     = 

OBJECT_NAME    = ISS OBJECT XY
OBJECT_ID      = 1998-067XY
CENTER_NAME    = EARTH
REF_FRAME      = TEME
TIME_SYSTEM    = UTC
MEAN_ELEMENT_THEORY = SGP/SGP4

EPOCH          = 2026-02-12T19:29:57.539328
MEAN_MOTION    = 15.59404778
ECCENTRICITY   = .0000339
INCLINATION    = 51.6277
RA_OF_ASC_NODE = 192.5393
ARG_OF_PERICENTER = 282.0268
MEAN_ANOMALY   = 78.0687

EPHEMERIS_TYPE = 0
CLASSIFICATION_TYPE = U
NORAD_CAT_ID   = 66912
ELEMENT_SET_NO = 999
REV_AT_EPOCH   = 1126
BSTAR          = .95585E-3
MEAN_MOTION_DOT = .77252E-3
MEAN_MOTION_DDOT = 0

CCSDS_OMM_VERS = 2.0
CREATION_DATE  = 
ORIGINATOR     = 

OBJECT_NAME    = ISS OBJECT XZ
OBJECT_ID      = 1998-067XZ
CENTER_NAME    = EARTH
REF_FRAME      = TEME
TIME_SYSTEM    = UTC
MEAN_ELEMENT_THEORY = SGP/SGP4

EPOCH          = 2026-02-12T18:56:01.640832
MEAN_MOTION    = 15.49808284
ECCENTRICITY   = .0010747
INCLINATION    = 51.6302
RA_OF_ASC_NODE = 195.3798
ARG_OF_PERICENTER = 105.6090
MEAN_ANOMALY   = 254.6085

EPHEMERIS_TYPE = 0
CLASSIFICATION_TYPE = U
NORAD_CAT_ID   = 67683
ELEMENT_SET_NO = 999
REV_AT_EPOCH   = 92
BSTAR          = .69061E-3
MEAN_MOTION_DOT = .38964E-3
MEAN_MOTION_DDOT = 0

CCSDS_OMM_VERS = 2.0
CREATION_DATE  = 
ORIGINATOR     = 

OBJECT_NAME    = GXIBA-1
OBJECT_ID      = 1998-067YA
CENTER_NAME    = EARTH
REF_FRAME      = TEME
TIME_SYSTEM    = UTC
MEAN_ELEMENT_THEORY = SGP/SGP4

EPOCH          = 2026-02-12T18:52:22.257408
MEAN_MOTION    = 15.50527877
ECCENTRICITY   = .0012565
INCLINATION    = 51.6298
RA_OF_ASC_NODE = 195.3636
ARG_OF_PERICENTER = 100.3020
MEAN_ANOMALY   = 259.9386

EPHEMERIS_TYPE = 0
CLASSIFICATION_TYPE = U
NORAD_CAT_ID   = 67684
ELEMENT_SET_NO = 999
REV_AT_EPOCH   = 92
BSTAR          = .11236E-2
MEAN_MOTION_DOT = .65614E-3
MEAN_MOTION_DDOT = 0

CCSDS_OMM_VERS = 2.0
CREATION_DATE  = 
ORIGINATOR     = 

OBJECT_NAME    = CORAL
OBJECT_ID      = 1998-067YB
CENTER_NAME    = EARTH
REF_FRAME      = TEME
TIME_SYSTEM    = UTC
MEAN_ELEMENT_THEORY = SGP/SGP4

EPOCH          = 2026-02-12T18:55:15.576672
MEAN_MOTION    = 15.49940774
ECCENTRICITY   = .0012724
INCLINATION    = 51.6301
RA_OF_ASC_NODE = 195.3761
ARG_OF_PERICENTER = 101.4519
MEAN_ANOMALY   = 258.7899

EPHEMERIS_TYPE = 0
CLASSIFICATION_TYPE = U
NORAD_CAT_ID   = 67685
ELEMENT_SET_NO = 999
REV_AT_EPOCH   = 92
BSTAR          = .72906E-3
MEAN_MOTION_DOT = .41405E-3
MEAN_MOTION_DDOT = 0

CCSDS_OMM_VERS = 2.0
CREATION_DATE  = 
ORIGINATOR     = 

OBJECT_NAME    = ISS OBJECT YC
OBJECT_ID      = 1998-067YC
CENTER_NAME    = EARTH
REF_FRAME      = TEME
TIME_SYSTEM    = UTC
MEAN_ELEMENT_THEORY = SGP/SGP4

EPOCH          = 2026-02-12T18:54:39.291264
MEAN_MOTION    = 15.50080405
ECCENTRICITY   = .0007793
INCLINATION    = 51.6303
RA_OF_ASC_NODE = 195.3741
ARG_OF_PERICENTER = 76.6609
MEAN_ANOMALY   = 283.5248

EPHEMERIS_TYPE = 0
CLASSIFICATION_TYPE = U
NORAD_CAT_ID   = 67686
ELEMENT_SET_NO = 999
REV_AT_EPOCH   = 92
BSTAR          = .79685E-3
MEAN_MOTION_DOT = .45458E-3
MEAN_MOTION_DDOT = 0

CCSDS_OMM_VERS = 2.0
CREATION_DATE  = 
ORIGINATOR     = 

OBJECT_NAME    = LEOPARD
OBJECT_ID      = 1998-067YD
CENTER_NAME    = EARTH
REF_FRAME      = TEME
TIME_SYSTEM    = UTC
MEAN_ELEMENT_THEORY = SGP/SGP4

EPOCH          = 2026-02-12T18:55:34.432608
MEAN_MOTION    = 15.49888363
ECCENTRICITY   = .0007898
INCLINATION    = 51.6307
RA_OF_ASC_NODE = 195.3783
ARG_OF_PERICENTER = 78.3934
MEAN_ANOMALY   = 281.7941

EPHEMERIS_TYPE = 0
CLASSIFICATION_TYPE = U
NORAD_CAT_ID   = 67687
ELEMENT_SET_NO = 999
REV_AT_EPOCH   = 84
BSTAR          = .71199E-3
MEAN_MOTION_DOT = .40265E-3
MEAN_MOTION_DDOT = 0

CCSDS_OMM_VERS = 2.0
CREATION_DATE  = 
ORIGINATOR     = 

OBJECT_NAME    = ISS OBJECT YE
OBJECT_ID      = 1998-067YE
CENTER_NAME    = EARTH
REF_FRAME      = TEME
TIME_SYSTEM    = UTC
MEAN_ELEMENT_THEORY = SGP/SGP4

EPOCH          = 2026-02-12T18:54:50.800608
MEAN_MOTION    = 15.50022474
ECCENTRICITY   = .0007782
INCLINATION    = 51.6307
RA_OF_ASC_NODE = 195.3748
ARG_OF_PERICENTER = 76.9093
MEAN_ANOMALY   = 283.2764

EPHEMERIS_TYPE = 0
CLASSIFICATION_TYPE = U
NORAD_CAT_ID   = 67688
ELEMENT_SET_NO = 999
REV_AT_EPOCH   = 84
BSTAR          = .79904E-3
MEAN_MOTION_DOT = .4549E-3
MEAN_MOTION_DDOT = 0

