SILVERSAT               
1 66909U 98067XV  26043.78661499  .00129510  00000+0  13215-2 0  9996
2 66909  51.6260 191.6138 0002622 286.8301  73.2406 15.64148018 11283
ISS OBJECT XW           
1 66910U 98067XW  26043.80604892  .00102181  00000+0  11176-2 0  9994
2 66910  51.6251 191.7381 0001815 319.3740  40.7118 15.62492126 11287
ISS OBJECT XX           
1 66911U 98067XX  26043.62569575  .00155735  00000+0  14994-2 0  9997
2 66911  51.6233 192.0300 0003356 305.0177  55.0503 15.65511224 11259
ISS OBJECT XY           
1 66912U 98067XY  26043.81247152  .00077252  00000+0  95585-3 0  9996
2 66912  51.6277 192.5393 0000339 282.0268  78.0687 15.59404778 11265
ISS OBJECT XZ           
1 67683U 98067XZ  26043.78890788  .00038964  00000+0  69061-3 0  9994
2 67683  51.6302 195.3798 0010747 105.6090 254.6085 15.49808284   921
GXIBA-1                 
1 67684U 98067YA  26043.78636872  .00065614  00000+0  11236-2 0  9999
2 67684  51.6298 195.3636 0012565 100.3020 259.9386 15.50527877   922
CORAL                   
1 67685U 98067YB  26043.78837473  .00041405  00000+0  72906-3 0  9994
2 67685  51.6301 195.3761 0012724 101.4519 258.7899 15.49940774   928
ISS OBJECT YC           
1 67686U 98067YC  26043.78795476  .00045458  00000+0  79685-3 0  9994
2 67686  51.6303 195.3741 0007793  76.6609 283.5248 15.50080405   924
LEOPARD                 
1 67687U 98067YD  26043.78859297  .00040265  00000+0  71199-3 0  9990
2 67687  51.6307 195.3783 0007898  78.3934 281.7941 15.49888363   849
ISS OBJECT YE           
1 67688U 98067YE  26043.78808797  .00045490  00000+0  79904-3 0  9997
2 67688  51.6307 195.3748 0007782  76.9093 283.2764 15.50022474   848
